{
  "type": "FeatureCollection",
  "features": [
    {
      "type": "Feature",
      "properties": {
        "norad_id": 41890,
        "name": "CYGFM07",
        "group": "weather",
        "lat": -29.974853126025636,
        "lon": -86.42626103218053,
        "alt_km": 411.02650083015305,
        "timestamp": "2025-12-20T16:47:35.934079+00:00",
        "meta_object_name": "CYGFM07",
        "meta_object_id": "2016-078G",
        "meta_epoch": "2025-12-20T06:14:08.524032",
        "meta_mean_motion": 15.50301575,
        "meta_eccentricity": 0.0010081,
        "meta_inclination": 34.9485,
        "meta_ra_of_asc_node": 332.1364,
        "meta_arg_of_pericenter": 279.4416,
        "meta_mean_anomaly": 80.5167,
        "meta_ephemeris_type": 0,
        "meta_classification_type": "U",
        "meta_norad_cat_id": 41890,
        "meta_element_set_no": 999,
        "meta_rev_at_epoch": 50112,
        "meta_bstar": 0.00030004,
        "meta_mean_motion_dot": 0.00017558,
        "meta_mean_motion_ddot": 0,
        "tle_line1": "1 41890U 16078G   25354.25982088  .00017558  00000+0  30004-3 0  9990",
        "tle_line2": "2 41890  34.9485 332.1364 0010081 279.4416  80.5167 15.50301575501120"
      },
      "geometry": {
        "type": "Point",
        "coordinates": [
          -86.42626103218053,
          -29.974853126025636
        ]
      }
    },
    {
      "type": "Feature",
      "properties": {
        "norad_id": 41891,
        "name": "CYGFM03",
        "group": "weather",
        "lat": 25.595309654307467,
        "lon": 107.85812853928235,
        "alt_km": 416.21885013676547,
        "timestamp": "2025-12-20T16:47:35.934089+00:00",
        "meta_object_name": "CYGFM03",
        "meta_object_id": "2016-078H",
        "meta_epoch": "2025-12-20T05:24:41.757984",
        "meta_mean_motion": 15.50196559,
        "meta_eccentricity": 0.0009673,
        "meta_inclination": 34.9438,
        "meta_ra_of_asc_node": 334.2852,
        "meta_arg_of_pericenter": 266.9211,
        "meta_mean_anomaly": 93.0404,
        "meta_ephemeris_type": 0,
        "meta_classification_type": "U",
        "meta_norad_cat_id": 41891,
        "meta_element_set_no": 999,
        "meta_rev_at_epoch": 50109,
        "meta_bstar": 0.00029189,
        "meta_mean_motion_dot": 0.00017012,
        "meta_mean_motion_ddot": 0,
        "tle_line1": "1 41891U 16078H   25354.22548331  .00017012  00000+0  29189-3 0  9994",
        "tle_line2": "2 41891  34.9438 334.2852 0009673 266.9211  93.0404 15.50196559501096"
      },
      "geometry": {
        "type": "Point",
        "coordinates": [
          107.85812853928235,
          25.595309654307467
        ]
      }
    },
    {
      "type": "Feature",
      "properties": {
        "norad_id": 43010,
        "name": "FENGYUN 3D",
        "group": "weather",
        "lat": -12.698512006124508,
        "lon": -36.826957670023575,
        "alt_km": 831.7533720760093,
        "timestamp": "2025-12-20T16:47:35.934100+00:00",
        "meta_object_name": "FENGYUN 3D",
        "meta_object_id": "2017-072A",
        "meta_epoch": "2025-12-20T11:46:45.724800",
        "meta_mean_motion": 14.19684908,
        "meta_eccentricity": 0.0001317,
        "meta_inclination": 98.9894,
        "meta_ra_of_asc_node": 320.9169,
        "meta_arg_of_pericenter": 157.0762,
        "meta_mean_anomaly": 203.0472,
        "meta_ephemeris_type": 0,
        "meta_classification_type": "U",
        "meta_norad_cat_id": 43010,
        "meta_element_set_no": 999,
        "meta_rev_at_epoch": 41963,
        "meta_bstar": -8.7196e-05,
        "meta_mean_motion_dot": -2.3e-06,
        "meta_mean_motion_ddot": 0,
        "tle_line1": "1 43010U 17072A   25354.49080700 -.00000230  00000+0 -87196-4 0  9993",
        "tle_line2": "2 43010  98.9894 320.9169 0001317 157.0762 203.0472 14.19684908419638"
      },
      "geometry": {
        "type": "Point",
        "coordinates": [
          -36.826957670023575,
          -12.698512006124508
        ]
      }
    },
    {
      "type": "Feature",
      "properties": {
        "norad_id": 43013,
        "name": "NOAA 20 (JPSS-1)",
        "group": "weather",
        "lat": 44.32779792163673,
        "lon": 119.57332918730891,
        "alt_km": 822.36641586941,
        "timestamp": "2025-12-20T16:47:35.934111+00:00",
        "meta_object_name": "NOAA 20 (JPSS-1)",
        "meta_object_id": "2017-073A",
        "meta_epoch": "2025-12-20T11:05:06.266112",
        "meta_mean_motion": 14.19527634,
        "meta_eccentricity": 0.0002126,
        "meta_inclination": 98.761,
        "meta_ra_of_asc_node": 290.6745,
        "meta_arg_of_pericenter": 76.1689,
        "meta_mean_anomaly": 283.9724,
        "meta_ephemeris_type": 0,
        "meta_classification_type": "U",
        "meta_norad_cat_id": 43013,
        "meta_element_set_no": 999,
        "meta_rev_at_epoch": 41911,
        "meta_bstar": 4.5119e-05,
        "meta_mean_motion_dot": 5.1e-07,
        "meta_mean_motion_ddot": 0,
        "tle_line1": "1 43013U 17073A   25354.46187808  .00000051  00000+0  45119-4 0  9999",
        "tle_line2": "2 43013  98.7610 290.6745 0002126  76.1689 283.9724 14.19527634419118"
      },
      "geometry": {
        "type": "Point",
        "coordinates": [
          119.57332918730891,
          44.32779792163673
        ]
      }
    },
    {
      "type": "Feature",
      "properties": {
        "norad_id": 43226,
        "name": "GOES 17",
        "group": "weather",
        "lat": 0.11470451578883374,
        "lon": -108.10118126244448,
        "alt_km": 35774.88643282891,
        "timestamp": "2025-12-20T16:47:35.934124+00:00",
        "meta_object_name": "GOES 17",
        "meta_object_id": "2018-022A",
        "meta_epoch": "2025-12-20T05:57:27.899712",
        "meta_mean_motion": 1.0027077,
        "meta_eccentricity": 0.0003087,
        "meta_inclination": 0.4759,
        "meta_ra_of_asc_node": 89.1542,
        "meta_arg_of_pericenter": 191.3939,
        "meta_mean_anomaly": 168.3988,
        "meta_ephemeris_type": 0,
        "meta_classification_type": "U",
        "meta_norad_cat_id": 43226,
        "meta_element_set_no": 999,
        "meta_rev_at_epoch": 2863,
        "meta_bstar": 0,
        "meta_mean_motion_dot": -1.59e-06,
        "meta_mean_motion_ddot": 0,
        "tle_line1": "1 43226U 18022A   25354.24823958 -.00000159  00000+0  00000+0 0  9994",
        "tle_line2": "2 43226   0.4759  89.1542 0003087 191.3939 168.3988  1.00270770 28632"
      },
      "geometry": {
        "type": "Point",
        "coordinates": [
          -108.10118126244448,
          0.11470451578883374
        ]
      }
    },
    {
      "type": "Feature",
      "properties": {
        "norad_id": 43491,
        "name": "FENGYUN 2H",
        "group": "weather",
        "lat": -0.8754072658692972,
        "lon": 60.796073718749,
        "alt_km": 35796.35500375591,
        "timestamp": "2025-12-20T16:47:35.934137+00:00",
        "meta_object_name": "FENGYUN 2H",
        "meta_object_id": "2018-050A",
        "meta_epoch": "2025-12-20T11:53:46.276800",
        "meta_mean_motion": 1.00271231,
        "meta_eccentricity": 0.0002377,
        "meta_inclination": 2.5699,
        "meta_ra_of_asc_node": 81.2484,
        "meta_arg_of_pericenter": 166.0257,
        "meta_mean_anomaly": 99.849,
        "meta_ephemeris_type": 0,
        "meta_classification_type": "U",
        "meta_norad_cat_id": 43491,
        "meta_element_set_no": 999,
        "meta_rev_at_epoch": 2764,
        "meta_bstar": 0,
        "meta_mean_motion_dot": -1.08e-06,
        "meta_mean_motion_ddot": 0,
        "tle_line1": "1 43491U 18050A   25354.49567450 -.00000108  00000+0  00000+0 0  9992",
        "tle_line2": "2 43491   2.5699  81.2484 0002377 166.0257  99.8490  1.00271231 27642"
      },
      "geometry": {
        "type": "Point",
        "coordinates": [
          60.796073718749,
          -0.8754072658692972
        ]
      }
    },
    {
      "type": "Feature",
      "properties": {
        "norad_id": 43689,
        "name": "METOP-C",
        "group": "weather",
        "lat": -27.82533384153212,
        "lon": 56.978081642612516,
        "alt_km": 825.6919897752705,
        "timestamp": "2025-12-20T16:47:35.934158+00:00",
        "meta_object_name": "METOP-C",
        "meta_object_id": "2018-087A",
        "meta_epoch": "2025-12-20T08:28:44.162688",
        "meta_mean_motion": 14.21487117,
        "meta_eccentricity": 8.79e-05,
        "meta_inclination": 98.6919,
        "meta_ra_of_asc_node": 52.0059,
        "meta_arg_of_pericenter": 26.0241,
        "meta_mean_anomaly": 334.098,
        "meta_ephemeris_type": 0,
        "meta_classification_type": "U",
        "meta_norad_cat_id": 43689,
        "meta_element_set_no": 999,
        "meta_rev_at_epoch": 36942,
        "meta_bstar": 6.6518e-05,
        "meta_mean_motion_dot": 1.02e-06,
        "meta_mean_motion_ddot": 0,
        "tle_line1": "1 43689U 18087A   25354.35328892  .00000102  00000+0  66518-4 0  9995",
        "tle_line2": "2 43689  98.6919  52.0059 0000879  26.0241 334.0980 14.21487117369421"
      },
      "geometry": {
        "type": "Point",
        "coordinates": [
          56.978081642612516,
          -27.82533384153212
        ]
      }
    }
  ]
}